[{"OBJECT_NAME":"O3B FM10","OBJECT_ID":"2014-083A","EPOCH":"2026-04-05T14:22:39.097632","MEAN_MOTION":5.00115388,"ECCENTRICITY":0.000269,"INCLINATION":0.0432,"RA_OF_ASC_NODE":335.9482,"ARG_OF_PERICENTER":37.2869,"MEAN_ANOMALY":346.7708,"EPHEMERIS_TYPE":0,"CLASSIFICATION_TYPE":"U","NORAD_CAT_ID":40348,"ELEMENT_SET_NO":999,"REV_AT_EPOCH":20626,"BSTAR":0,"MEAN_MOTION_DOT":-2.5e-7,"MEAN_MOTION_DDOT":0},{"OBJECT_NAME":"O3B FM11","OBJECT_ID":"2014-083B","EPOCH":"2026-04-05T09:53:05.498016","MEAN_MOTION":5.00115628,"ECCENTRICITY":0.0003011,"INCLINATION":0.058,"RA_OF_ASC_NODE":0.0142,"ARG_OF_PERICENTER":1.439,"MEAN_ANOMALY":358.5465,"EPHEMERIS_TYPE":0,"CLASSIFICATION_TYPE":"U","NORAD_CAT_ID":40349,"ELEMENT_SET_NO":999,"REV_AT_EPOCH":20627,"BSTAR":0,"MEAN_MOTION_DOT":-2.5e-7,"MEAN_MOTION_DDOT":0},{"OBJECT_NAME":"O3B FM12","OBJECT_ID":"2014-083C","EPOCH":"2026-04-05T15:19:55.169472","MEAN_MOTION":5.00115976,"ECCENTRICITY":0.0002584,"INCLINATION":0.0571,"RA_OF_ASC_NODE":359.4878,"ARG_OF_PERICENTER":11.7125,"MEAN_ANOMALY":348.8043,"EPHEMERIS_TYPE":0,"CLASSIFICATION_TYPE":"U","NORAD_CAT_ID":40350,"ELEMENT_SET_NO":999,"REV_AT_EPOCH":20628,"BSTAR":0,"MEAN_MOTION_DOT":-2.5e-7,"MEAN_MOTION_DDOT":0},{"OBJECT_NAME":"O3B FM9","OBJECT_ID":"2014-083D","EPOCH":"2026-04-03T06:24:26.823168","MEAN_MOTION":5.00115977,"ECCENTRICITY":0.00027068,"INCLINATION":0.0591,"RA_OF_ASC_NODE":0.1634,"ARG_OF_PERICENTER":11.5018,"MEAN_ANOMALY":348.3391,"EPHEMERIS_TYPE":0,"CLASSIFICATION_TYPE":"U","NORAD_CAT_ID":40351,"ELEMENT_SET_NO":999,"REV_AT_EPOCH":20632,"BSTAR":0,"MEAN_MOTION_DOT":-2.6e-7,"MEAN_MOTION_DDOT":0},{"OBJECT_NAME":"ASTRA 2G","OBJECT_ID":"2014-089A","EPOCH":"2026-04-05T19:43:33.507840","MEAN_MOTION":1.00274178,"ECCENTRICITY":0.0004955,"INCLINATION":0.0549,"RA_OF_ASC_NODE":6.6179,"ARG_OF_PERICENTER":39.741,"MEAN_ANOMALY":111.8446,"EPHEMERIS_TYPE":0,"CLASSIFICATION_TYPE":"U","NORAD_CAT_ID":40364,"ELEMENT_SET_NO":999,"REV_AT_EPOCH":4124,"BSTAR":0,"MEAN_MOTION_DOT":1.52e-6,"MEAN_MOTION_DDOT":0},{"OBJECT_NAME":"SES-9","OBJECT_ID":"2016-013A","EPOCH":"2026-04-05T20:06:17.897760","MEAN_MOTION":1.00270963,"ECCENTRICITY":0.0002012,"INCLINATION":0.0157,"RA_OF_ASC_NODE":266.5681,"ARG_OF_PERICENTER":149.3575,"MEAN_ANOMALY":188.0691,"EPHEMERIS_TYPE":0,"CLASSIFICATION_TYPE":"U","NORAD_CAT_ID":41380,"ELEMENT_SET_NO":999,"REV_AT_EPOCH":3671,"BSTAR":0,"MEAN_MOTION_DOT":-3.43e-6,"MEAN_MOTION_DDOT":0},{"OBJECT_NAME":"SES-10","OBJECT_ID":"2017-017A","EPOCH":"2026-04-05T12:25:34.311936","MEAN_MOTION":1.00270868,"ECCENTRICITY":0.0002867,"INCLINATION":0.0051,"RA_OF_ASC_NODE":112.1658,"ARG_OF_PERICENTER":279.0982,"MEAN_ANOMALY":282.0485,"EPHEMERIS_TYPE":0,"CLASSIFICATION_TYPE":"U","NORAD_CAT_ID":42432,"ELEMENT_SET_NO":999,"REV_AT_EPOCH":3302,"BSTAR":0,"MEAN_MOTION_DOT":-2.71e-6,"MEAN_MOTION_DDOT":0},{"OBJECT_NAME":"SES-15","OBJECT_ID":"2017-026A","EPOCH":"2026-04-05T15:33:18.400896","MEAN_MOTION":1.00271138,"ECCENTRICITY":7.65e-5,"INCLINATION":0.0303,"RA_OF_ASC_NODE":321.5526,"ARG_OF_PERICENTER":62.8767,"MEAN_ANOMALY":273.6753,"EPHEMERIS_TYPE":0,"CLASSIFICATION_TYPE":"U","NORAD_CAT_ID":42709,"ELEMENT_SET_NO":999,"REV_AT_EPOCH":670,"BSTAR":0,"MEAN_MOTION_DOT":6.1e-7,"MEAN_MOTION_DDOT":0},{"OBJECT_NAME":"SES-11 (ECHOSTAR 105)","OBJECT_ID":"2017-063A","EPOCH":"2026-04-05T15:40:10.242048","MEAN_MOTION":1.00272416,"ECCENTRICITY":0.0002856,"INCLINATION":0.0513,"RA_OF_ASC_NODE":54.395,"ARG_OF_PERICENTER":338.9299,"MEAN_ANOMALY":290.7229,"EPHEMERIS_TYPE":0,"CLASSIFICATION_TYPE":"U","NORAD_CAT_ID":42967,"ELEMENT_SET_NO":999,"REV_AT_EPOCH":3099,"BSTAR":0,"MEAN_MOTION_DOT":-8.8e-7,"MEAN_MOTION_DDOT":0},{"OBJECT_NAME":"SES-14","OBJECT_ID":"2018-012B","EPOCH":"2026-04-05T19:21:58.080672","MEAN_MOTION":1.00272937,"ECCENTRICITY":9.6e-5,"INCLINATION":0.0061,"RA_OF_ASC_NODE":56.9969,"ARG_OF_PERICENTER":326.6486,"MEAN_ANOMALY":53.4565,"EPHEMERIS_TYPE":0,"CLASSIFICATION_TYPE":"U","NORAD_CAT_ID":43175,"ELEMENT_SET_NO":999,"REV_AT_EPOCH":629,"BSTAR":0,"MEAN_MOTION_DOT":-2.77e-6,"MEAN_MOTION_DDOT":0},{"OBJECT_NAME":"O3B FM15","OBJECT_ID":"2018-024A","EPOCH":"2026-04-02T03:13:32.937600","MEAN_MOTION":5.00115731,"ECCENTRICITY":0.0002633,"INCLINATION":0.0502,"RA_OF_ASC_NODE":3.1354,"ARG_OF_PERICENTER":6.1622,"MEAN_ANOMALY":350.7046,"EPHEMERIS_TYPE":0,"CLASSIFICATION_TYPE":"U","NORAD_CAT_ID":43231,"ELEMENT_SET_NO":999,"REV_AT_EPOCH":14722,"BSTAR":0,"MEAN_MOTION_DOT":-2.7e-7,"MEAN_MOTION_DDOT":0},{"OBJECT_NAME":"O3B FM16","OBJECT_ID":"2018-024B","EPOCH":"2026-04-05T18:50:06.677664","MEAN_MOTION":5.00116044,"ECCENTRICITY":0.0002696,"INCLINATION":0.0473,"RA_OF_ASC_NODE":6.6042,"ARG_OF_PERICENTER":4.8244,"MEAN_ANOMALY":348.5765,"EPHEMERIS_TYPE":0,"CLASSIFICATION_TYPE":"U","NORAD_CAT_ID":43232,"ELEMENT_SET_NO":999,"REV_AT_EPOCH":14731,"BSTAR":0,"MEAN_MOTION_DOT":-2.5e-7,"MEAN_MOTION_DDOT":0},{"OBJECT_NAME":"O3B FM14","OBJECT_ID":"2018-024C","EPOCH":"2026-04-05T10:13:08.186880","MEAN_MOTION":5.00115741,"ECCENTRICITY":0.000285,"INCLINATION":0.0458,"RA_OF_ASC_NODE":6.2308,"ARG_OF_PERICENTER":9.3737,"MEAN_ANOMALY":344.4031,"EPHEMERIS_TYPE":0,"CLASSIFICATION_TYPE":"U","NORAD_CAT_ID":43233,"ELEMENT_SET_NO":999,"REV_AT_EPOCH":14731,"BSTAR":0,"MEAN_MOTION_DOT":-2.5e-7,"MEAN_MOTION_DDOT":0},{"OBJECT_NAME":"O3B FM13","OBJECT_ID":"2018-024D","EPOCH":"2026-03-25T16:44:28.678560","MEAN_MOTION":5.00115556,"ECCENTRICITY":0.00039678,"INCLINATION":0.047,"RA_OF_ASC_NODE":335.8508,"ARG_OF_PERICENTER":348.6026,"MEAN_ANOMALY":35.5167,"EPHEMERIS_TYPE":0,"CLASSIFICATION_TYPE":"U","NORAD_CAT_ID":43234,"ELEMENT_SET_NO":999,"REV_AT_EPOCH":14688,"BSTAR":0,"MEAN_MOTION_DOT":-2.4e-7,"MEAN_MOTION_DDOT":0},{"OBJECT_NAME":"SES-12","OBJECT_ID":"2018-049A","EPOCH":"2026-04-05T21:04:38.928576","MEAN_MOTION":1.00272534,"ECCENTRICITY":0.0001622,"INCLINATION":0.0383,"RA_OF_ASC_NODE":46.6758,"ARG_OF_PERICENTER":267.8436,"MEAN_ANOMALY":290.8155,"EPHEMERIS_TYPE":0,"CLASSIFICATION_TYPE":"U","NORAD_CAT_ID":43488,"ELEMENT_SET_NO":999,"REV_AT_EPOCH":2869,"BSTAR":0,"MEAN_MOTION_DOT":-2.68e-6,"MEAN_MOTION_DDOT":0},{"OBJECT_NAME":"O3B FM20","OBJECT_ID":"2019-020A","EPOCH":"2026-04-05T01:14:56.220576","MEAN_MOTION":5.00115564,"ECCENTRICITY":0.0002663,"INCLINATION":0.053,"RA_OF_ASC_NODE":0.9141,"ARG_OF_PERICENTER":2.6728,"MEAN_ANOMALY":356.4138,"EPHEMERIS_TYPE":0,"CLASSIFICATION_TYPE":"U","NORAD_CAT_ID":44112,"ELEMENT_SET_NO":999,"REV_AT_EPOCH":12790,"BSTAR":0,"MEAN_MOTION_DOT":-2.5e-7,"MEAN_MOTION_DDOT":0},{"OBJECT_NAME":"O3B FM19","OBJECT_ID":"2019-020B","EPOCH":"2026-04-05T01:53:57.299424","MEAN_MOTION":5.00116062,"ECCENTRICITY":0.00042907,"INCLINATION":0.0578,"RA_OF_ASC_NODE":352.7385,"ARG_OF_PERICENTER":10.0637,"MEAN_ANOMALY":357.199,"EPHEMERIS_TYPE":0,"CLASSIFICATION_TYPE":"U","NORAD_CAT_ID":44113,"ELEMENT_SET_NO":999,"REV_AT_EPOCH":12778,"BSTAR":0,"MEAN_MOTION_DOT":-2.6e-7,"MEAN_MOTION_DDOT":0}]
